CCSDS_OMM_VERS = 2.0
CREATION_DATE  = 
ORIGINATOR     = 

OBJECT_NAME    = H-2A R/B
OBJECT_ID      = 2006-002B
CENTER_NAME    = EARTH
REF_FRAME      = TEME
TIME_SYSTEM    = UTC
MEAN_ELEMENT_THEORY = SGP/SGP4

EPOCH          = 2026-03-20T08:44:17.209248
MEAN_MOTION    = 15.16635921
ECCENTRICITY   = .0052191
INCLINATION    = 98.2431
RA_OF_ASC_NODE = 227.3087
ARG_OF_PERICENTER = 204.4299
MEAN_ANOMALY   = 155.4458

EPHEMERIS_TYPE = 0
CLASSIFICATION_TYPE = U
NORAD_CAT_ID   = 28932
ELEMENT_SET_NO = 999
REV_AT_EPOCH   = 9605
BSTAR          = .39303E-3
MEAN_MOTION_DOT = .7879E-4
MEAN_MOTION_DDOT = 0

CCSDS_OMM_VERS = 2.0
CREATION_DATE  = 
ORIGINATOR     = 

OBJECT_NAME    = RESURS-DK 1
OBJECT_ID      = 2006-021A
CENTER_NAME    = EARTH
REF_FRAME      = TEME
TIME_SYSTEM    = UTC
MEAN_ELEMENT_THEORY = SGP/SGP4

EPOCH          = 2026-03-20T10:41:42.794880
MEAN_MOTION    = 15.12814978
ECCENTRICITY   = .0000804
INCLINATION    = 69.9338
RA_OF_ASC_NODE = 209.1986
ARG_OF_PERICENTER = 131.0661
MEAN_ANOMALY   = 229.0575

EPHEMERIS_TYPE = 0
CLASSIFICATION_TYPE = U
NORAD_CAT_ID   = 29228
ELEMENT_SET_NO = 999
REV_AT_EPOCH   = 8915
BSTAR          = .14479E-3
MEAN_MOTION_DOT = .2442E-4
MEAN_MOTION_DDOT = 0

CCSDS_OMM_VERS = 2.0
CREATION_DATE  = 
ORIGINATOR     = 

OBJECT_NAME    = CZ-4B R/B
OBJECT_ID      = 2006-046C
CENTER_NAME    = EARTH
REF_FRAME      = TEME
TIME_SYSTEM    = UTC
MEAN_ELEMENT_THEORY = SGP/SGP4

EPOCH          = 2026-03-20T08:40:10.399872
MEAN_MOTION    = 15.17002992
ECCENTRICITY   = .0032031
INCLINATION    = 97.5569
RA_OF_ASC_NODE = 124.2409
ARG_OF_PERICENTER = 228.6285
MEAN_ANOMALY   = 131.2193

EPHEMERIS_TYPE = 0
CLASSIFICATION_TYPE = U
NORAD_CAT_ID   = 29507
ELEMENT_SET_NO = 999
REV_AT_EPOCH   = 6166
BSTAR          = .17003E-3
MEAN_MOTION_DOT = .3332E-4
MEAN_MOTION_DDOT = 0

CCSDS_OMM_VERS = 2.0
CREATION_DATE  = 
ORIGINATOR     = 

OBJECT_NAME    = CZ-2C R/B
OBJECT_ID      = 2007-010B
CENTER_NAME    = EARTH
REF_FRAME      = TEME
TIME_SYSTEM    = UTC
MEAN_ELEMENT_THEORY = SGP/SGP4

EPOCH          = 2026-03-20T07:02:31.900128
MEAN_MOTION    = 14.20249848
ECCENTRICITY   = .0057853
INCLINATION    = 98.3988
RA_OF_ASC_NODE = 192.0412
ARG_OF_PERICENTER = 263.1763
MEAN_ANOMALY   = 96.2830

EPHEMERIS_TYPE = 0
CLASSIFICATION_TYPE = U
NORAD_CAT_ID   = 31114
ELEMENT_SET_NO = 999
REV_AT_EPOCH   = 98122
BSTAR          = .68674E-4
MEAN_MOTION_DOT = .108E-5
MEAN_MOTION_DDOT = 0

CCSDS_OMM_VERS = 2.0
CREATION_DATE  = 
ORIGINATOR     = 

OBJECT_NAME    = COSMO-SKYMED 1
OBJECT_ID      = 2007-023A
CENTER_NAME    = EARTH
REF_FRAME      = TEME
TIME_SYSTEM    = UTC
MEAN_ELEMENT_THEORY = SGP/SGP4

EPOCH          = 2026-03-20T11:54:00.684864
MEAN_MOTION    = 14.96616086
ECCENTRICITY   = .0001385
INCLINATION    = 97.8880
RA_OF_ASC_NODE = 270.6160
ARG_OF_PERICENTER = 87.0522
MEAN_ANOMALY   = 273.0857

EPHEMERIS_TYPE = 0
CLASSIFICATION_TYPE = U
NORAD_CAT_ID   = 31598
ELEMENT_SET_NO = 999
REV_AT_EPOCH   = 1652
BSTAR          = .2063E-3
MEAN_MOTION_DOT = .2291E-4
MEAN_MOTION_DDOT = 0

CCSDS_OMM_VERS = 2.0
CREATION_DATE  = 
ORIGINATOR     = 

OBJECT_NAME    = COSMOS 2428
OBJECT_ID      = 2007-029A
CENTER_NAME    = EARTH
REF_FRAME      = TEME
TIME_SYSTEM    = UTC
MEAN_ELEMENT_THEORY = SGP/SGP4

EPOCH          = 2026-03-20T10:29:29.858496
MEAN_MOTION    = 14.12947533
ECCENTRICITY   = .0009533
INCLINATION    = 70.9441
RA_OF_ASC_NODE = 180.7865
ARG_OF_PERICENTER = 266.0902
MEAN_ANOMALY   = 93.9129

EPHEMERIS_TYPE = 0
CLASSIFICATION_TYPE = U
NORAD_CAT_ID   = 31792
ELEMENT_SET_NO = 999
REV_AT_EPOCH   = 96561
BSTAR          = .17401E-4
MEAN_MOTION_DOT = -.15E-6
MEAN_MOTION_DDOT = 0

CCSDS_OMM_VERS = 2.0
CREATION_DATE  = 
ORIGINATOR     = 

OBJECT_NAME    = SL-16 R/B
OBJECT_ID      = 2007-029B
CENTER_NAME    = EARTH
REF_FRAME      = TEME
TIME_SYSTEM    = UTC
MEAN_ELEMENT_THEORY = SGP/SGP4

EPOCH          = 2026-03-20T10:36:06.100128
MEAN_MOTION    = 14.14839445
ECCENTRICITY   = .0002362
INCLINATION    = 70.9756
RA_OF_ASC_NODE = 149.7845
ARG_OF_PERICENTER = 276.5404
MEAN_ANOMALY   = 94.4763

EPHEMERIS_TYPE = 0
CLASSIFICATION_TYPE = U
NORAD_CAT_ID   = 31793
ELEMENT_SET_NO = 999
REV_AT_EPOCH   = 96689
BSTAR          = .20138E-3
MEAN_MOTION_DOT = .341E-5
MEAN_MOTION_DDOT = 0

CCSDS_OMM_VERS = 2.0
CREATION_DATE  = 
ORIGINATOR     = 

OBJECT_NAME    = KORONAS-FOTON
OBJECT_ID      = 2009-003A
CENTER_NAME    = EARTH
REF_FRAME      = TEME
TIME_SYSTEM    = UTC
MEAN_ELEMENT_THEORY = SGP/SGP4

EPOCH          = 2026-03-20T12:38:03.099264
MEAN_MOTION    = 15.43574227
ECCENTRICITY   = .0011787
INCLINATION    = 82.4268
RA_OF_ASC_NODE = 264.6073
ARG_OF_PERICENTER = 114.4481
MEAN_ANOMALY   = 245.7997

EPHEMERIS_TYPE = 0
CLASSIFICATION_TYPE = U
NORAD_CAT_ID   = 33504
ELEMENT_SET_NO = 999
REV_AT_EPOCH   = 94741
BSTAR          = .2755E-3
MEAN_MOTION_DOT = .12446E-3
MEAN_MOTION_DDOT = 0

CCSDS_OMM_VERS = 2.0
CREATION_DATE  = 
ORIGINATOR     = 

OBJECT_NAME    = CZ-2C R/B
OBJECT_ID      = 2011-030B
CENTER_NAME    = EARTH
REF_FRAME      = TEME
TIME_SYSTEM    = UTC
MEAN_ELEMENT_THEORY = SGP/SGP4

EPOCH          = 2026-03-20T10:18:38.809440
MEAN_MOTION    = 14.81259770
ECCENTRICITY   = .0051527
INCLINATION    = 97.8564
RA_OF_ASC_NODE = 36.4791
ARG_OF_PERICENTER = 316.7669
MEAN_ANOMALY   = 154.2594

EPHEMERIS_TYPE = 0
CLASSIFICATION_TYPE = U
NORAD_CAT_ID   = 37731
ELEMENT_SET_NO = 999
REV_AT_EPOCH   = 79168
BSTAR          = .17197E-3
MEAN_MOTION_DOT = .1316E-4
MEAN_MOTION_DDOT = 0

CCSDS_OMM_VERS = 2.0
CREATION_DATE  = 
ORIGINATOR     = 

OBJECT_NAME    = H-2A R/B
OBJECT_ID      = 2012-025E
CENTER_NAME    = EARTH
REF_FRAME      = TEME
TIME_SYSTEM    = UTC
MEAN_ELEMENT_THEORY = SGP/SGP4

EPOCH          = 2026-03-20T10:27:43.173504
MEAN_MOTION    = 14.95237315
ECCENTRICITY   = .0043112
INCLINATION    = 98.4747
RA_OF_ASC_NODE = 47.3439
ARG_OF_PERICENTER = 277.9189
MEAN_ANOMALY   = 81.7138

EPHEMERIS_TYPE = 0
CLASSIFICATION_TYPE = U
NORAD_CAT_ID   = 38341
ELEMENT_SET_NO = 999
REV_AT_EPOCH   = 74982
BSTAR          = .23157E-3
MEAN_MOTION_DOT = .2524E-4
MEAN_MOTION_DDOT = 0

CCSDS_OMM_VERS = 2.0
CREATION_DATE  = 
ORIGINATOR     = 

OBJECT_NAME    = SHIJIAN-16 (SJ-16)
OBJECT_ID      = 2013-057A
CENTER_NAME    = EARTH
REF_FRAME      = TEME
TIME_SYSTEM    = UTC
MEAN_ELEMENT_THEORY = SGP/SGP4

EPOCH          = 2026-03-20T13:20:55.324032
MEAN_MOTION    = 14.92387110
ECCENTRICITY   = .001526
INCLINATION    = 74.9740
RA_OF_ASC_NODE = 164.5188
ARG_OF_PERICENTER = 84.5674
MEAN_ANOMALY   = 275.7254

EPHEMERIS_TYPE = 0
CLASSIFICATION_TYPE = U
NORAD_CAT_ID   = 39358
ELEMENT_SET_NO = 999
REV_AT_EPOCH   = 67312
BSTAR          = .66944E-4
MEAN_MOTION_DOT = .657E-5
MEAN_MOTION_DDOT = 0

CCSDS_OMM_VERS = 2.0
CREATION_DATE  = 
ORIGINATOR     = 

OBJECT_NAME    = SL-4 R/B
OBJECT_ID      = 2014-021B
CENTER_NAME    = EARTH
REF_FRAME      = TEME
TIME_SYSTEM    = UTC
MEAN_ELEMENT_THEORY = SGP/SGP4

EPOCH          = 2026-03-20T12:50:51.137376
MEAN_MOTION    = 15.39515386
ECCENTRICITY   = .0096652
INCLINATION    = 51.6053
RA_OF_ASC_NODE = 284.3536
ARG_OF_PERICENTER = 142.4647
MEAN_ANOMALY   = 218.3137

EPHEMERIS_TYPE = 0
CLASSIFICATION_TYPE = U
NORAD_CAT_ID   = 39679
ELEMENT_SET_NO = 999
REV_AT_EPOCH   = 65794
BSTAR          = .3004E-3
MEAN_MOTION_DOT = .13687E-3
MEAN_MOTION_DDOT = 0

