H-2A R/B                
1 28932U 06002B   26079.36408807  .00007879  00000+0  39303-3 0  9993
2 28932  98.2431 227.3087 0052191 204.4299 155.4458 15.16635921 96051
RESURS-DK 1             
1 29228U 06021A   26079.44563420  .00002442  00000+0  14479-3 0  9993
2 29228  69.9338 209.1986 0000804 131.0661 229.0575 15.12814978 89157
CZ-4B R/B               
1 29507U 06046C   26079.36123148  .00003332  00000+0  17003-3 0  9995
2 29507  97.5569 124.2409 0032031 228.6285 131.2193 15.17002992 61665
CZ-2C R/B               
1 31114U 07010B   26079.29342477  .00000108  00000+0  68674-4 0  9993
2 31114  98.3988 192.0412 0057853 263.1763  96.2830 14.20249848981224
COSMO-SKYMED 1          
1 31598U 07023A   26079.49584126  .00002291  00000+0  20630-3 0  9998
2 31598  97.8880 270.6160 0001385  87.0522 273.0857 14.96616086 16524
COSMOS 2428             
1 31792U 07029A   26079.43715114 -.00000015  00000+0  17401-4 0  9993
2 31792  70.9441 180.7865 0009533 266.0902  93.9129 14.12947533965618
SL-16 R/B               
1 31793U 07029B   26079.44173727  .00000341  00000+0  20138-3 0  9994
2 31793  70.9756 149.7845 0002362 276.5404  94.4763 14.14839445966892
KORONAS-FOTON           
1 33504U 09003A   26079.52642476  .00012446  00000+0  27550-3 0  9995
2 33504  82.4268 264.6073 0011787 114.4481 245.7997 15.43574227947410
CZ-2C R/B               
1 37731U 11030B   26079.42961585  .00001316  00000+0  17197-3 0  9998
2 37731  97.8564  36.4791 0051527 316.7669 154.2594 14.81259770791685
H-2A R/B                
1 38341U 12025E   26079.43591636  .00002524  00000+0  23157-3 0  9993
2 38341  98.4747  47.3439 0043112 277.9189  81.7138 14.95237315749822
SHIJIAN-16 (SJ-16)      
1 39358U 13057A   26079.55619588  .00000657  00000+0  66944-4 0  9995
2 39358  74.9740 164.5188 0015260  84.5674 275.7254 14.92387110673129
SL-4 R/B                
1 39679U 14021B   26079.53531409  .00013687  00000+0  30040-3 0  9990
2 39679  51.6053 284.3536 0096652 142.4647 218.3137 15.39515386657945
